LANDSAT 9               
1 49260U 21088A   23262.17126967  .00000714  00000+0  16861-3 0  9990
2 49260  98.2218 330.9045 0001373  92.7436 267.3919 14.57114911105076
